24873,IRIDIUM 921,1997,93.91,-1.0,-,86.39,Inactive,0,LEO,USA,USA,Unknown,Unknown,Unknown,1 24873U 97034E   24078.19312795  .00017482  00000+0  54108-3 0  9997,2 24873  86.3868 332.9574 0001789 189.8340 170.2875 15.33354975461215,15.33354975,0.0001789,LEO
24903,IRIDIUM 26,1997,100.26,-1.0,-,86.39,Inactive,0,LEO,USA,USA,Unknown,Unknown,Unknown,1 24903U 97043A   24078.13550033  .00000407  00000+0  13272-3 0  9990,2 24903  86.3930 301.9922 0002154  92.8393 267.3050 14.36241801391265,14.36241801,0.0002154,LEO
24907,IRIDIUM 22,1997,100.34,-1.0,-,86.39,Inactive,0,LEO,USA,USA,Unknown,Unknown,Unknown,1 24907U 97043E   24078.12087246  .00000380  00000+0  12641-3 0  9993,2 24907  86.3940 305.1644 0002057  86.5932 273.5500 14.35136951391344,14.35136951,0.0002057,LEO
24925,DUMMY MASS 1,1997,96.9,-1.0,-,86.34,Inactive,0,LEO,PRC,China,Unknown,Unknown,Unknown,1 24925U 97048A   24078.22802383  .00000517  00000+0  55831-4 0  9997,2 24925  86.3396 346.0210 0005730 342.3677  17.7348 14.86095008437399,14.86095008,0.000573,LEO
24926,DUMMY MASS 2,1997,96.91,-1.0,-,86.34,Inactive,0,LEO,PRC,China,Unknown,Unknown,Unknown,1 24926U 97048B   24078.24989168  .00000515  00000+0  55973-4 0  9992,2 24926  86.3397 347.5367 0006945 351.7792   8.3317 14.85854155437185,14.85854155,0.0006945,LEO
24944,IRIDIUM 29,1997,100.31,-1.0,-,86.4,Inactive,0,LEO,Kazakhstan,USA,Unknown,Unknown,Unknown,1 24944U 97051A   24078.22216260  .00000406  00000+0  13402-3 0  9999,2 24944  86.3995 335.0525 0001955  81.3197 278.8221 14.35595816387833,14.35595816,0.0001955,LEO
24946,IRIDIUM 33,1997,100.4,-1.0,-,86.39,Inactive,0,LEO,Kazakhstan,USA,Unknown,Unknown,Unknown,1 24946U 97051C   24078.23440088  .00000280  00000+0  92681-4 0  9996,2 24946  86.3908 334.3061 0009638 118.5574 241.6593 14.34285967387375,14.34285967,0.0009638,LEO
24948,IRIDIUM 28,1997,100.24,-1.0,-,86.4,Inactive,0,LEO,Kazakhstan,USA,Unknown,Unknown,Unknown,1 24948U 97051E   24078.21656432  .00000409  00000+0  13265-3 0  9991,2 24948  86.3997 332.8330 0002416  94.9058 265.2415 14.36544544388364,14.36544544,0.0002416,LEO
